NORAD_CAT_ID,OBJECT_NAME,OBJECT_TYPE,EPOCH,MEAN_MOTION,ECCENTRICITY,INCLINATION,RA_OF_ASC_NODE,ARG_OF_PERICENTER,MEAN_ANOMALY,BSTAR,MEAN_MOTION_DOT,MEAN_MOTION_DDOT,TLE_LINE0,TLE_LINE1,TLE_LINE2,SEMIMAJOR_AXIS,PERIOD,APOGEE,PERIGEE,DECAYED
53707.0,STARLINK-4667,PAYLOAD,2023-09-04 09:26:50,15.08865206,0.0002255,53.2176,27.0358,84.5706,275.5543,0.00045012,6.888e-05,0.0,0 STARLINK-4667,1 53707U 22107H   23247.39363897  .00006888  00000-0  45012-3 0  9995,2 53707  53.2176  27.0358 0002255  84.5706 275.5543 15.08865206 55830,6917.803,95.436,541.228,538.108,0.0
53707.0,STARLINK-4667,PAYLOAD,2023-09-04 15:48:23,15.08838613,0.0001003,53.2182,25.8466,91.4685,268.6422,-9.6438e-05,-1.822e-05,0.0,0 STARLINK-4667,1 53707U 22107H   23247.65860509 -.00001822  00000-0 -96438-4 0  9990,2 53707  53.2182  25.8466 0001003  91.4685 268.6422 15.08838613 55871,6917.885,95.438,540.443,539.056,0.0
53707.0,STARLINK-4667,PAYLOAD,2023-09-05 09:17:38,15.08828142,0.0001689,53.2174,22.5754,87.0681,273.0505,-0.00028957,-4.892e-05,0.0,0 STARLINK-4667,1 53707U 22107H   23248.38725453 -.00004892  00000-0 -28957-3 0  9999,2 53707  53.2174  22.5754 0001689  87.0681 273.0505 15.08828142 55983,6917.917,95.438,540.95,538.613,0.0
53707.0,STARLINK-4667,PAYLOAD,2023-09-06 09:08:25,15.08854464,0.0001291,53.2178,18.115,85.3913,274.7227,-0.00033679,-5.646e-05,0.0,0 STARLINK-4667,1 53707U 22107H   23249.38084511 -.00005646  00000-0 -33679-3 0  9998,2 53707  53.2178  18.1150 0001291  85.3913 274.7227 15.08854464 56139,6917.836,95.437,540.594,538.808,0.0
53707.0,STARLINK-4667,PAYLOAD,2023-09-06 18:40:44,15.08851007,0.0001359,53.218,16.3305,95.5118,264.603,0.00058981,9.114e-05,0.0,0 STARLINK-4667,1 53707U 22107H   23249.77829285  .00009114  00000-0  58981-3 0  9991,2 53707  53.2180  16.3305 0001359  95.5118 264.6030 15.08851007 56948,6917.847,95.437,540.652,538.772,0.0
53707.0,STARLINK-4667,PAYLOAD,2023-09-07 01:02:18,15.08834172,0.0003532,53.218,15.141,81.5297,278.6096,0.00027506,4.091e-05,0.0,0 STARLINK-4667,1 53707U 22107H   23250.04326962  .00004091  00000-0  27506-3 0  9995,2 53707  53.2180  15.1410 0003532  81.5297 278.6096 15.08834172 56233,6917.898,95.438,542.207,537.32,0.0
53707.0,STARLINK-4667,PAYLOAD,2023-09-07 08:59:13,15.08842862,0.0001366,53.2187,13.6551,96.3228,263.792,0.00022468,3.29e-05,0.0,0 STARLINK-4667,1 53707U 22107H   23250.37445771  .00003290  00000-0  22468-3 0  9993,2 53707  53.2187  13.6551 0001366  96.3228 263.7920 15.08842862 56281,6917.872,95.437,540.682,538.792,0.0
53707.0,STARLINK-4667,PAYLOAD,2023-09-08 13:36:09,15.08837599,0.0001552,53.2189,8.3039,91.3984,268.7186,1.3489e-05,-7.3e-07,0.0,0 STARLINK-4667,1 53707U 22107H   23251.56677997 -.00000073  00000-0  13489-4 0  9993,2 53707  53.2189   8.3039 0001552  91.3984 268.7186 15.08837599 57210,6917.888,95.438,540.826,538.679,0.0
53707.0,STARLINK-4667,PAYLOAD,2023-09-08 16:46:55,15.08841363,0.000136,53.2166,7.7086,80.4085,279.7061,5.9133e-05,6.53e-06,0.0,0 STARLINK-4667,1 53707U 22107H   23251.69925844  .00000653  00000-0  59133-4 0  9993,2 53707  53.2166   7.7086 0001360  80.4085 279.7061 15.08841363 56484,6917.876,95.437,540.682,538.8,0.0
53707.0,STARLINK-4667,PAYLOAD,2023-09-09 07:05:24,15.0883557,0.0001369,53.2164,5.0329,82.3637,277.7511,0.00011024,1.467e-05,0.0,0 STARLINK-4667,1 53707U 22107H   23252.29542385  .00001467  00000-0  11024-3 0  9995,2 53707  53.2164   5.0329 0001369  82.3637 277.7511 15.08835570 56577,6917.894,95.438,540.706,538.812,0.0
53707.0,STARLINK-4667,PAYLOAD,2023-09-09 13:26:57,15.08837999,0.0001773,53.2171,3.8443,88.519,271.6006,-5.8993e-06,-3.82e-06,0.0,0 STARLINK-4667,1 53707U 22107H   23252.56038444 -.00000382  00000-0 -58993-5 0  9996,2 53707  53.2171   3.8443 0001773  88.5190 271.6006 15.08837999 57366,6917.887,95.438,540.978,538.525,0.0
53707.0,STARLINK-4667,PAYLOAD,2023-09-10 08:31:34,15.08843196,0.0001475,53.2181,0.2743,74.0557,286.0598,0.00026042,3.859e-05,0.0,0 STARLINK-4667,1 53707U 22107H   23253.35526496  .00003859  00000-0  26042-3 0  9991,2 53707  53.2181   0.2743 0001475  74.0557 286.0598 15.08843196 56739,6917.871,95.437,540.756,538.715,0.0
53707.0,STARLINK-4667,PAYLOAD,2023-09-10 13:17:44,15.08846341,0.0001502,53.2185,359.3826,73.4685,286.6472,0.0002643,3.922e-05,0.0,0 STARLINK-4667,1 53707U 22107H   23253.55398397  .00003922  00000-0  26430-3 0  9992,2 53707  53.2185 359.3826 0001502  73.4685 286.6472 15.08846341 57518,6917.861,95.437,540.765,538.687,0.0
53707.0,STARLINK-4667,PAYLOAD,2023-09-11 06:46:58,15.0884267,0.0001406,53.2187,356.1112,75.6272,284.4876,0.00011001,1.463e-05,0.0,0 STARLINK-4667,1 53707U 22107H   23254.28262532  .00001463  00000-0  11001-3 0  9990,2 53707  53.2187 356.1112 0001406  75.6272 284.4876 15.08842670 56875,6917.872,95.437,540.71,538.765,0.0
53707.0,STARLINK-4667,PAYLOAD,2023-09-11 13:08:31,15.08847254,0.0001388,53.2184,354.9218,86.3313,273.7837,0.00019322,2.789e-05,0.0,0 STARLINK-4667,1 53707U 22107H   23254.54758302  .00002789  00000-0  19322-3 0  9990,2 53707  53.2184 354.9218 0001388  86.3313 273.7837 15.08847254 57668,6917.858,95.437,540.683,538.763,0.0
53707.0,STARLINK-4667,PAYLOAD,2023-09-12 09:48:31,15.08849593,0.0001412,53.2184,351.0565,105.0733,255.0415,0.00019565,2.828e-05,0.0,0 STARLINK-4667,1 53707U 22107H   23255.40870033  .00002828  00000-0  19565-3 0  9995,2 53707  53.2184 351.0565 0001412 105.0733 255.0415 15.08849593 57049,6917.851,95.437,540.693,538.739,0.0
53707.0,STARLINK-4667,PAYLOAD,2023-09-12 12:59:17,15.0885565,0.0001305,53.2177,350.4621,100.899,259.2149,0.00032668,4.917e-05,0.0,0 STARLINK-4667,1 53707U 22107H   23255.54117793  .00004917  00000-0  32668-3 0  9997,2 53707  53.2177 350.4621 0001305 100.8990 259.2149 15.08855650 57812,6917.833,95.437,540.6,538.795,0.0
53707.0,STARLINK-4667,PAYLOAD,2023-09-13 12:50:04,15.08854232,0.0001678,53.2194,346.0023,101.9393,258.1788,0.00024328,3.587e-05,0.0,0 STARLINK-4667,1 53707U 22107H   23256.53477418  .00003587  00000-0  24328-3 0  9996,2 53707  53.2194 346.0023 0001678 101.9393 258.1788 15.08854232 57968,6917.837,95.437,540.863,538.541,0.0
53707.0,STARLINK-4667,PAYLOAD,2023-09-14 09:30:06,15.0882898,0.0001516,53.2189,342.1352,99.5897,260.5266,-0.00014221,-2.55e-05,0.0,0 STARLINK-4667,1 53707U 22107H   23257.39590801 -.00002550  00000-0 -14221-3 0  9995,2 53707  53.2189 342.1352 0001516  99.5897 260.5266 15.08828980 57347,6917.914,95.438,540.828,538.73,0.0
53707.0,STARLINK-4667,PAYLOAD,2023-09-14 12:40:52,15.08826148,0.0001471,53.2184,341.5407,95.1717,264.9443,-0.00017508,-3.072e-05,0.0,0 STARLINK-4667,1 53707U 22107H   23257.52839039 -.00003072  00000-0 -17508-3 0  9990,2 53707  53.2184 341.5407 0001471  95.1717 264.9443 15.08826148 58114,6917.923,95.438,540.805,538.77,0.0
53707.0,STARLINK-4667,PAYLOAD,2023-09-15 10:56:16,15.08846803,0.0001329,53.2174,337.3775,76.8035,283.3105,0.00033493,5.047e-05,0.0,0 STARLINK-4667,1 53707U 22107H   23258.45574635  .00005047  00000-0  33493-3 0  9994,2 53707  53.2174 337.3775 0001329  76.8035 283.3105 15.08846803 57507,6917.86,95.437,540.644,538.805,0.0
53707.0,STARLINK-4667,PAYLOAD,2023-09-15 12:31:39,15.08849008,0.0001316,53.2173,337.0799,81.2464,278.8677,0.00038844,5.901e-05,0.0,0 STARLINK-4667,1 53707U 22107H   23258.52198576  .00005901  00000-0  38844-3 0  9992,2 53707  53.2173 337.0799 0001316  81.2464 278.8677 15.08849008 58268,6917.853,95.437,540.628,538.807,0.0
53707.0,STARLINK-4667,PAYLOAD,2023-09-15 22:03:58,15.08837588,0.0001572,53.2182,335.2974,80.8914,279.2256,0.00030929,4.637e-05,0.0,0 STARLINK-4667,1 53707U 22107H   23258.91943151  .00004637  00000-0  30929-3 0  9993,2 53707  53.2182 335.2974 0001572  80.8914 279.2256 15.08837588 57573,6917.888,95.438,540.84,538.665,0.0
53707.0,STARLINK-4667,PAYLOAD,2023-09-16 09:11:41,15.08831179,0.0001417,53.2174,333.2152,76.3108,283.8042,0.0001876,2.698e-05,0.0,0 STARLINK-4667,1 53707U 22107H   23259.38311638  .00002698  00000-0  18760-3 0  9998,2 53707  53.2174 333.2152 0001417  76.3108 283.8042 15.08831179 57645,6917.907,95.438,540.753,538.792,0.0
53707.0,STARLINK-4667,PAYLOAD,2023-09-16 12:22:27,15.08835297,0.0001652,53.219,332.6218,80.5207,279.5972,0.00024457,3.606e-05,0.0,0 STARLINK-4667,1 53707U 22107H   23259.51559549  .00003606  00000-0  24457-3 0  9998,2 53707  53.2190 332.6218 0001652  80.5207 279.5972 15.08835297 58412,6917.895,95.438,540.903,538.617,0.0
53707.0,STARLINK-4667,PAYLOAD,2023-09-17 10:37:50,15.08849004,0.0001567,53.2188,328.4585,79.1586,280.9583,0.00010014,1.306e-05,0.0,0 STARLINK-4667,1 53707U 22107H   23260.44294893  .00001306  00000-0  10014-3 0  9999,2 53707  53.2188 328.4585 0001567  79.1586 280.9583 15.08849004 57805,6917.853,95.437,540.802,538.634,0.0
53707.0,STARLINK-4667,PAYLOAD,2023-09-17 12:13:13,15.08851547,0.0001454,53.2176,328.1597,80.8717,279.244,0.00013815,1.912e-05,0.0,0 STARLINK-4667,1 53707U 22107H   23260.50918681  .00001912  00000-0  13815-3 0  9999,2 53707  53.2176 328.1597 0001454  80.8717 279.2440 15.08851547 58564,6917.845,95.437,540.716,538.704,0.0
53707.0,STARLINK-4667,PAYLOAD,2023-09-18 10:28:38,15.08842216,0.0001583,53.2186,323.997,86.2584,273.8589,9.1372e-05,1.167e-05,0.0,0 STARLINK-4667,1 53707U 22107H   23261.43655375  .00001167  00000-0  91372-4 0  9997,2 53707  53.2186 323.9970 0001583  86.2584 273.8589 15.08842216 57957,6917.874,95.437,540.834,538.644,0.0
53707.0,STARLINK-4667,PAYLOAD,2023-09-18 12:04:01,15.0884283,0.000141,53.2179,323.6999,81.8021,278.3131,0.0001213,1.643e-05,0.0,0 STARLINK-4667,1 53707U 22107H   23261.50279237  .00001643  00000-0  12130-3 0  9997,2 53707  53.2179 323.6999 0001410  81.8021 278.3131 15.08842830 58713,6917.872,95.437,540.712,538.761,0.0
53707.0,STARLINK-4667,PAYLOAD,2023-09-19 10:19:24,15.08857466,0.0001348,53.2174,319.5378,75.5091,284.6051,0.00025174,3.723e-05,0.0,0 STARLINK-4667,1 53707U 22107H   23262.43014242  .00003723  00000-0  25174-3 0  9996,2 53707  53.2174 319.5378 0001348  75.5091 284.6051 15.08857466 58105,6917.827,95.436,540.625,538.759,0.0
